IRIDIUM 36              
1 24967U 97056C   24182.63379340  .00000956  00000+0  31694-3 0  9992
2 24967  86.3973 320.6466 0002316  91.2953 268.8510 14.36867031401727
IRIDIUM 39              
1 25042U 97069D   24182.55329345  .00001234  00000+0  32592-3 0  9990
2 25042  86.3922   1.8293 0019764  45.0957 315.1846 14.48030744398053
IRIDIUM 38              
1 25043U 97069E   24182.84592004  .00000806  00000+0  26389-3 0  9998
2 25043  86.3960  20.9228 0002938 125.4927 234.6545 14.37315372395735
IRIDIUM 42              
1 25077U 97077A   24182.56644382  .00000660  00000+0  22217-3 0  9994
2 25077  86.3963  26.7765 0002117 105.4293 254.7137 14.35609446390739
IRIDIUM 44              
1 25078U 97077B   24182.56079030  .00000862  00000+0  27046-3 0  9996
2 25078  86.3960   9.6511 0003971  95.5015 264.6637 14.39453674393109
IRIDIUM 45              
1 25104U 97082A   24182.59462227  .00014857  00000+0  81864-3 0  9996
2 25104  86.3748 215.9540 0158285 189.5760 170.2451 15.03694587398874
IRIDIUM 24              
1 25105U 97082B   24182.56307168  .00000828  00000+0  25000-3 0  9999
2 25105  86.3913 229.2095 0012617 149.9181 210.2746 14.41240421392553
IRIDIUM 51              
1 25262U 98018A   24182.55173357  .00022483  00000+0  10106-2 0  9994
2 25262  86.3951 225.7542 0145519 133.0651 228.2880 15.11903867393435
